IRIDIUM 176             
1 43923U 19002B   25136.09164828  .00000332  00000+0  48819-4 0  9999
2 43923  86.6110 159.5820 0002183 107.1531 252.9926 14.72248022340821
IRIDIUM 168             
1 43924U 19002C   25136.07697737  .00000046  00000+0  93181-5 0  9993
2 43924  86.3987 159.6580 0002322  92.6005 267.5457 14.34217516332053
IRIDIUM 173             
1 43925U 19002D   25135.57591241  .00000074  00000+0  19462-4 0  9991
2 43925  86.3982 159.7726 0002181  95.6251 264.5194 14.34217513331973
IRIDIUM 169             
1 43926U 19002E   25135.53234566  .00000367  00000+0  11338-3 0  9990
2 43926  86.4276 191.3612 0002774 126.3498 233.7957 14.38605935333059
IRIDIUM 172             
1 43927U 19002F   25135.43003140  .00000172  00000+0  54522-4 0  9999
2 43927  86.3983 159.8398 0002031  89.6362 270.5067 14.34217598331959
IRIDIUM 175             
1 43928U 19002G   25135.40686983  .00000465  00000+0  69695-4 0  9991
2 43928  86.1476 114.2505 0003383  98.1968 261.9632 14.72244036340713
IRIDIUM 171             
1 43929U 19002H   25135.62031105  .00000155  00000+0  48113-4 0  9994
2 43929  86.3993 160.0228 0002678  90.4730 269.6773 14.34217729331975
IRIDIUM 170             
1 43930U 19002J   25136.09784889  .00000507  00000+0  76471-4 0  9991
2 43930  86.6109 159.5845 0002704  99.9839 260.1683 14.72252931340838
IRIDIUM 167             
1 43931U 19002K   25135.54420042 -.00000025  00000+0 -15895-4 0  9999
2 43931  86.3986 159.8114 0002728  96.5133 263.6374 14.34217448331968
IRIDIUM 181             
1 56726U 23068S   25135.29440809  .00000265  00000+0  72740-4 0  9993
2 56726  86.4544 222.9600 0002786  86.4066 273.7454 14.43307308105048
IRIDIUM 177             
1 56727U 23068T   25136.09552990  .00000292  00000+0  34846-4 0  9993
2 56727  86.1978 157.3585 0002809  92.1502 268.0041 14.80221707107629
